{"fetched_at":"2026-05-14T21:11:48Z","count":6726,"tles":[{"name":"STARLINK-11190 [DTC]","line1":"1 60911U 24154J   26133.37523384 -.00000297  00000+0  24060-5 0  9998","line2":"2 60911  53.1591 172.4105 0000937  83.0545 277.0580 15.69702195 98660","category":"Starlink"},{"name":"STARLINK-35705","line1":"1 67039U 25294K   26133.43998737  .00014607  00000+0  53908-3 0  9997","line2":"2 67039  43.0063  32.2494 0001866 272.5421  87.5218 15.27591747 24703","category":"Starlink"},{"name":"TITAN 34D TRANSTAGE DEB","line1":"1 23619U 88077N   26103.95659770 -.00000062  00000+0 -18071-2 0  9999","line2":"2 23619  26.5708 160.1791 7348897 199.3497 102.1351  2.01461294  9229","category":"Other"},{"name":"LEMUR-2-ZUPANSKI","line1":"1 43695U 18088F   23277.04557521  .10313839 -14986-5  11685-2 0  9997","line2":"2 43695  84.9740 348.1518 0009617 272.6786  87.3417 16.36968881273055","category":"Other"},{"name":"STARLINK-5110","line1":"1 54839U 22177V   23362.52789426  .00000485  00000+0  50954-4 0  9990","line2":"2 54839  43.0024 171.6879 0001164 275.1580  84.9129 15.02533031 55313","category":"Starlink"},{"name":"STARLINK-31310","line1":"1 59092U 24041U   26133.20735060  .00000869  00000+0  41105-4 0  9991","line2":"2 59092  43.0044 306.7714 0001662 272.8432  87.2229 15.27578386124136","category":"Starlink"},{"name":"STARLINK-34777","line1":"1 65339U 25189S   26133.39376351  .00014981  00000+0  49344-3 0  9992","line2":"2 65339  53.1488 266.1708 0000652 291.3438  68.7493 15.31707138 41020","category":"Starlink"},{"name":"COSMOS 2251 DEB","line1":"1 33835U 93036CC  26104.59807463  .00002172  00000+0  41590-3 0  9991","line2":"2 33835  74.0566 225.8602 0055173 247.3820 127.3436 14.63512043905867","category":"Other"},{"name":"IT-SPINS","line1":"1 49017U 21013G   24056.55772047  .06813032  12211-4  11012-2 0  9993","line2":"2 49017  51.5578 242.5378 0010070 278.4171  81.5710 16.32634793149261","category":"Other"},{"name":"STARLINK-11493 [DTC]","line1":"1 62410U 24249B   26133.40054272  .00157841  00000+0  12112-2 0  9997","line2":"2 62410  42.9994 137.9879 0002752 242.0200 118.0389 15.70820605 79653","category":"Starlink"},{"name":"STARLINK-36328","line1":"1 68096U 26042AD  26133.01344541  .00015686  00000+0  47452-3 0  9990","line2":"2 68096  53.1603 239.9226 0001507  91.6754 268.4421 15.34393342 12149","category":"Starlink"},{"name":"FENGYUN 1C DEB","line1":"1 30231U 99025WQ  26104.37216731  .00000669  00000+0  36004-3 0  9993","line2":"2 30231  98.7843 151.7933 0128291  41.4048  21.7724 14.11974419987506","category":"Weather"},{"name":"UPMSAT-2","line1":"1 46276U 20061E   25284.11510829  .12115553  24945-5  13983-3 0  9991","line2":"2 46276  97.2106   5.1352 0012001 257.8539 102.1421 16.49625583285006","category":"Other"},{"name":"STARLINK-6301","line1":"1 56392U 23061U   26133.49451778  .00000337  00000+0  21760-4 0  9999","line2":"2 56392  43.0011 181.2302 0000974 275.5209  84.5532 15.27579274166787","category":"Starlink"},{"name":"GAOFEN-11 05","line1":"1 60249U 24130A   26133.50185795  .00003247  00000+0  13748-3 0  9997","line2":"2 60249  97.4003 212.2917 0005467 187.2741 172.8418 15.23870265 80189","category":"Other"},{"name":"STARLINK-35681","line1":"1 66395U 25257R   26133.40593118  .00015929  00000+0  54873-3 0  9991","line2":"2 66395  53.1553 276.2898 0000293   9.7423 350.3583 15.30202469 29565","category":"Starlink"},{"name":"FENGYUN 1C DEB","line1":"1 36656U 99025DYA 26084.55214542  .00001132  00000+0  11882-2 0  9997","line2":"2 36656  97.4286 195.3381 0333063 246.7863 109.7884 13.54781806602376","category":"Weather"},{"name":"KSF2-B","line1":"1 52193U 22033AN  23362.20936523  .00161348  00000+0  13430-2 0  9991","line2":"2 52193  97.3464  89.6815 0003748 184.0493 176.0739 15.69617558 97432","category":"Other"},{"name":"STARLINK-33678","line1":"1 63509U 25071S   26133.36308507  .00008276  00000+0  27809-3 0  9996","line2":"2 63509  53.1578 199.3449 0001264  84.5706 275.5440 15.31707895 62401","category":"Starlink"},{"name":"STARLINK-5983","line1":"1 75983C 23094G   23189.75604167  .00525945  00000-0  75774-3 0  1893","line2":"2 75983  42.9967 313.5984 0077224 152.5449 348.3377 15.98096906    15","category":"Starlink"},{"name":"STARLINK-30610","line1":"1 58082U 23160H   26133.23889764  .00000440  00000+0  25506-4 0  9996","line2":"2 58082  43.0057  73.6993 0001425 263.6882  96.3807 15.27577691142817","category":"Starlink"},{"name":"STARLINK-34281","line1":"1 64260U 25120E   26133.37488433  .00035482  00000+0  82036-3 0  9996","line2":"2 64260  53.1599 174.5395 0000857  82.0684 278.0419 15.42185119 53796","category":"Starlink"},{"name":"CZ-6A DEB","line1":"1 60975U 24140MA  24249.53184781  .00004376  00000+0  90420-3 0  9993","line2":"2 60975  88.9873 347.4863 0134117 333.6260  25.8161 14.54665472  2523","category":"Other"},{"name":"STARLINK-36256","line1":"1 67103U 25299B   26133.14549436  .00012219  00000+0  45273-3 0  9993","line2":"2 67103  42.9997 165.0101 0001094 260.1983  99.8745 15.27585782 22978","category":"Starlink"},{"name":"INMARSAT 3-F4","line1":"1 24819U 97027A   26103.41711389  .00000099  00000+0  00000+0 0  9991","line2":"2 24819  11.4077  38.2544 0009272  42.1071 133.5206  0.99496931105418","category":"Other"},{"name":"LEMUR-2-EMMACULATE","line1":"1 55037U 23001AE  23361.70766472  .00066631  00000+0  17835-2 0  9997","line2":"2 55037  97.4557  62.4842 0010311  42.7029 317.5015 15.37739671 54667","category":"Other"},{"name":"STARLINK-31182","line1":"1 59159U 24044H   26133.31721258  .00000376  00000+0  23173-4 0  9992","line2":"2 59159  43.0032 101.6925 0001335 268.2033  91.8666 15.27578901123482","category":"Starlink"},{"name":"LEMUR-2-LUCILLE-ROSE","line1":"1 65403U 25135BV  26134.13515770  .00005552  00000+0  45478-3 0  9996","line2":"2 65403  97.7692 250.4010 0011557  45.7910 314.4260 14.99646936 43539","category":"Other"},{"name":"COSMOS 2251 DEB","line1":"1 33936U 93036ER  26104.56571497  .00001339  00000+0  27673-3 0  9995","line2":"2 33936  74.0161 162.5638 0029597 282.9470  76.8392 14.61154865906832","category":"Other"},{"name":"CHINASAT 9B","line1":"1 49125U 21080A   26134.05379519 -.00000299  00000+0  00000+0 0  9996","line2":"2 49125   0.0306  95.2730 0001174 317.0717 300.2623  1.00271623 17306","category":"Other"},{"name":"STARLINK-11502 [DTC]","line1":"1 62474U 24254N   26133.23783840  .00135227  00000+0  10397-2 0  9991","line2":"2 62474  43.0017 193.8438 0002845 288.7343  71.3216 15.70852122 79559","category":"Starlink"},{"name":"STARLINK-36306","line1":"1 68160U 26049U   26133.47410613  .00010309  00000+0  32116-3 0  9991","line2":"2 68160  97.2844 155.2634 0001369  93.7493 266.3906 15.33450779  9574","category":"Starlink"},{"name":"FENGYUN 1C DEB","line1":"1 30313U 99025AAA 26104.20298814  .00002048  00000+0  85346-3 0  9994","line2":"2 30313  98.8665 196.8924 0054340 342.8033  46.9184 14.26624971988359","category":"Weather"},{"name":"STARLINK-32189","line1":"1 60317U 24133S   26132.91485815  .00000251  00000+0  20590-4 0  9992","line2":"2 60317  53.1614 358.7316 0001144  84.7041 275.4090 15.30195641101561","category":"Starlink"},{"name":"STARLINK-35499","line1":"1 66462U 25262G   26132.72826316  .00017988  00000+0  66135-3 0  9996","line2":"2 66462  42.9991 294.2274 0001068 265.3322  94.7408 15.27592385 28704","category":"Starlink"},{"name":"SHIYAN-27 OBJECT A","line1":"1 63599U 25078A   26133.52533417  .00000000  00000+0  62427-4 0  9993","line2":"2 63599  99.6912 141.2741 0001216  92.6713 267.4564 13.57247024 52835","category":"Other"},{"name":"STARLINK-6200","line1":"1 76200C 23083X   23172.25534722 -.00373972  00000-0 -28269-2 0  1721","line2":"2 76200  43.0045  90.6377 0001431 255.9129 114.4422 15.71853684    14","category":"Starlink"},{"name":"STARLINK-30701","line1":"1 57950U 23148R   26133.16891404 -.00000703  00000+0 -11608-4 0  9993","line2":"2 57950  53.1610  84.8161 0001441  98.4323 261.6842 15.30188931148293","category":"Starlink"},{"name":"STARLINK-11720 [DTC]","line1":"1 64131U 25111J   26133.49542376  .00163003  00000+0  12474-2 0  9992","line2":"2 64131  42.9996 303.0157 0002801 272.2020  87.8527 15.70870246 56784","category":"Starlink"},{"name":"CZ-6A DEB","line1":"1 60848U 24140JB  24249.26438323  .00033375  00000+0  72165-2 0  9992","line2":"2 60848  88.7458 346.4364 0185081 246.5646 111.6007 14.47967336  3294","category":"Other"},{"name":"STARLINK-35777","line1":"1 66975U 25288S   26133.36367870  .00006864  00000+0  25870-3 0  9991","line2":"2 66975  43.0012  18.6258 0001401 274.8508  85.2184 15.27582149 25172","category":"Starlink"},{"name":"IABS R/B","line1":"1 22916U 93074B   26103.96538752 -.00000235  00000+0  00000+0 0  9999","line2":"2 22916  13.8334 342.5042 0060632 100.8810 259.7735  1.00005192 25260","category":"Other"},{"name":"TELSTAR 19V","line1":"1 43562U 18059A   26134.00520740 -.00000266  00000+0  00000+0 0  9990","line2":"2 43562   0.0220 196.4998 0001999 261.0824  73.0600  1.00270178 28803","category":"Other"},{"name":"STARLINK-5404","line1":"1 54769U 22175M   23362.15872473  .00002275  00000+0  16099-3 0  9994","line2":"2 54769  53.2183  46.8610 0001685  93.7017 266.4168 15.08839021 56604","category":"Starlink"},{"name":"STARLINK-31178","line1":"1 59025U 24038C   26133.40547672 -.00002916  00000+0 -96465-4 0  9991","line2":"2 59025  43.0046  21.7097 0001041 260.8588  99.2146 15.27586443124541","category":"Starlink"},{"name":"STARLINK-34968","line1":"1 65276U 25184D   26133.10715831  .00003768  00000+0  26498-3 0  9992","line2":"2 65276  97.4972 185.9911 0001908 152.2181 207.9148 15.05668507 40994","category":"Starlink"},{"name":"FENGYUN 1C DEB","line1":"1 33733U 99025DHW 26104.21460549  .00004480  00000+0  15869-2 0  9994","line2":"2 33733  99.0922 200.4746 0078983 173.2939 217.0872 14.33313446922017","category":"Weather"},{"name":"STARLINK-35125","line1":"1 65534U 25200Q   26133.46831435  .00005659  00000+0  39584-3 0  9997","line2":"2 65534  97.5002 203.4100 0001823 125.9085 234.2312 15.05663361 38871","category":"Starlink"}]}